[{"OBJECT_NAME":"LEMUR-2-ALISIA","OBJECT_ID":"2025-009DB","EPOCH":"2026-03-09T17:42:17.671392","MEAN_MOTION":15.01147598,"ECCENTRICITY":0.00065821,"INCLINATION":97.7037,"RA_OF_ASC_NODE":151.6973,"ARG_OF_PERICENTER":159.9869,"MEAN_ANOMALY":200.1615,"EPHEMERIS_TYPE":0,"CLASSIFICATION_TYPE":"U","NORAD_CAT_ID":62706,"ELEMENT_SET_NO":999,"REV_AT_EPOCH":8523,"BSTAR":0.00072005311,"MEAN_MOTION_DOT":9.177e-5,"MEAN_MOTION_DDOT":0},{"OBJECT_NAME":"STARLINK-36213","OBJECT_ID":"2025-304W","EPOCH":"2026-03-09T17:36:08.078112","MEAN_MOTION":14.98333555,"ECCENTRICITY":0.00026387,"INCLINATION":70.0025,"RA_OF_ASC_NODE":174.2497,"ARG_OF_PERICENTER":272.6683,"MEAN_ANOMALY":87.4174,"EPHEMERIS_TYPE":0,"CLASSIFICATION_TYPE":"U","NORAD_CAT_ID":67212,"ELEMENT_SET_NO":999,"REV_AT_EPOCH":1389,"BSTAR":0.00042942824,"MEAN_MOTION_DOT":5.035e-5,"MEAN_MOTION_DDOT":0}]
